{
  "type": "FeatureCollection",
  "name": "LA/Long Beach Port Complex",
  "description": "Largest US container port - monitor ship count and container throughput",
  "properties": {
    "type": "port_logistics",
    "significance": "40% of US container imports",
    "signal_logic": "Ship count anomaly indicates supply chain activity"
  },
  "features": [
    {
      "type": "Feature",
      "properties": {
        "name": "Port of Los Angeles Main",
        "type": "container_terminal"
      },
      "geometry": {
        "type": "Polygon",
        "coordinates": [[
          [-118.30, 33.78],
          [-118.22, 33.78],
          [-118.22, 33.70],
          [-118.30, 33.70],
          [-118.30, 33.78]
        ]]
      }
    },
    {
      "type": "Feature",
      "properties": {
        "name": "Port of Long Beach",
        "type": "container_terminal"
      },
      "geometry": {
        "type": "Polygon",
        "coordinates": [[
          [-118.25, 33.78],
          [-118.15, 33.78],
          [-118.15, 33.70],
          [-118.25, 33.70],
          [-118.25, 33.78]
        ]]
      }
    },
    {
      "type": "Feature",
      "properties": {
        "name": "Anchorage Area",
        "type": "waiting_area"
      },
      "geometry": {
        "type": "Polygon",
        "coordinates": [[
          [-118.35, 33.70],
          [-118.10, 33.70],
          [-118.10, 33.60],
          [-118.35, 33.60],
          [-118.35, 33.70]
        ]]
      }
    }
  ]
}
